0 COSMOS 2251 DEB
1 34921U 93036ADS 13282.53951865  .00018892  00000-0  45715-2 0  7796
2 34921 074.0329 112.5417 0034051 203.4828 187.8424 14.52648008237090
0 COSMOS 2251 DEB
1 34921U 93036ADS 13282.97014638  .00018021  00000-0  43613-2 0  7803
2 34921 074.0344 111.7302 0034152 202.0667 280.3333 14.52649529237153
0 COSMOS 2251 DEB
1 34921U 93036ADS 13283.49768251  .00024561  00000-0  59449-2 0  7819
2 34921 074.0387 110.7394 0034323 200.1532 159.8766 14.52652331237234
0 COSMOS 2251 DEB
1 34921U 93036ADS 13286.97227609  .00016573  00000-0  40032-2 0  7825
2 34921 074.0328 104.1801 0033844 194.0806 329.9418 14.52763321237743
0 COSMOS 2251 DEB
1 34921U 93036ADS 13288.46139948  .00027280  00000-0  65663-2 0  7834
2 34921 074.0335 101.3704 0033588 190.9954 198.0525 14.52826113237952
0 COSMOS 2251 DEB
1 34921U 93036ADS 13290.45854638  .00026710  00000-0  64192-2 0  7840
2 34921 074.0341 097.6018 0033525 187.2212 203.3091 14.52904549238242
0 COSMOS 2251 DEB
1 34921U 93036ADS 13291.92259897  .00021349  00000-0  51300-2 0  7850
2 34921 074.0342 094.8387 0033254 184.2276 301.0301 14.52967613238451
0 COSMOS 2251 DEB
1 34921U 93036ADS 13294.88333014  .00026080  00000-0  62461-2 0  7860
2 34921 074.0348 089.2507 0032884 178.6658 307.5885 14.53085477238883
